<?xml version="1.0" encoding="UTF-8"?>
<kml xmlns="http://www.opengis.net/kml/2.2" xmlns:gx="http://www.google.com/kml/ext/2.2" xmlns:xsi="http://www.w3.org/2001/XMLSchema-instance"
 xsi:schemaLocation="http://www.opengis.net/kml/2.2 http://schemas.opengis.net/kml/2.2.0/ogckml22.xsd http://www.google.com/kml/ext/2.2 http://code.google.com/apis/kml/schema/kml22gx.xsd">
<Document id="thulagi_downstream_path_v2">
  <name>thulagi_downstream_path_v2</name>
  <snippet></snippet>
  <Folder id="FeatureLayer0">
    <name>thulagi_downstream_path_v2</name>
    <snippet></snippet>
    <Placemark id="ID_00000">
      <name>12798.3242332804</name>
      <snippet></snippet>
      <description><![CDATA[<html xmlns:fo="http://www.w3.org/1999/XSL/Format" xmlns:msxsl="urn:schemas-microsoft-com:xslt">
<head>
<META http-equiv="Content-Type" content="text/html">
<meta http-equiv="content-type" content="text/html; charset=UTF-8">
</head>
<body style="margin:0px 0px 0px 0px;overflow:auto;background:#FFFFFF;">
<table style="font-family:Arial,Verdana,Times;font-size:12px;text-align:left;width:100%;border-collapse:collapse;padding:3px 3px 3px 3px">
<tr style="text-align:center;font-weight:bold;background:#9CBCE2">
<td>12798.3242332804</td>
</tr>
<tr>
<td>
<table style="font-family:Arial,Verdana,Times;font-size:12px;text-align:left;width:100%;border-spacing:0px; padding:3px 3px 3px 3px"></table>
</td>
</tr>
</table>
</body><script type="text/javascript">
				function changeImage(attElement, nameElement) {
				document.getElementById('imageAttachment').src = attElement;
				document.getElementById('imageName').innerHTML = nameElement;}
			</script></html>
]]></description>
      <styleUrl>#LineStyle00</styleUrl>
      <MultiGeometry>
        <LineString>
          <extrude>0</extrude>
          <tessellate>1</tessellate><altitudeMode>clampToGround</altitudeMode>
          <coordinates> 84.42650562811596,28.5293861986614,0 84.42679405816276,28.52965209885268,0 84.42680038499572,28.52939178643986,0 84.42651195558773,28.52912588629754,0 84.42621719849363,28.52912029792133,0 84.42592244250461,28.52911470892585,0 84.42562768659957,28.52910911929179,0 84.42533926105736,28.52884321688492,0 84.42504450502204,28.52883762601452,0 84.42474975009179,28.5288320345249,0 84.42445499524558,28.52882644239667,0 84.4241602404834,28.52882084962985,0 84.42386548478423,28.52881525620507,0 84.42357706474343,28.52854934947543,0 84.42328231095618,28.52854375485312,0 84.42298755725301,28.52853815959223,0 84.42269913922831,28.52827225205911,0 84.42240438641606,28.52826665558135,0 84.42210963368792,28.52826105846503,0 84.4218148810439,28.52825546071012,0 84.42152012848399,28.52824986231663,0 84.42122537498719,28.52824426326518,0 84.42093696346321,28.527978352331,0 84.42064221187847,28.52797275208214,0 84.42035380260678,28.5277068400406,0 84.42005905089204,28.52770123855557,0 84.41976430028249,28.52769563645139,0 84.41946954975717,28.52769003370866,0 84.41917479931604,28.52768443032737,0 84.41888004793807,28.52767882628811,0 84.41859164416825,28.52741290992484,0 84.41829689470245,28.52740730468829,0 84.41800214532093,28.52740169881319,0 84.41771374356728,28.52713578164698,0 84.41741899507693,28.52713017455523,0 84.41712424667082,28.52712456682492,0 84.416829498349,28.52711895845608,0 84.41711789666078,28.52738487733722,0 84.4168231476163,28.52737926890793,0 84.41653474909045,28.52711334942928,0 84.41624000093721,28.52710773978337,0 84.4159516056847,28.52684181921716,0 84.41565685842274,28.52683620835464,0 84.41536211022409,28.52683059683417,0 84.41565050488366,28.52709651857594,0 84.41594525286828,28.52710212949893,0 84.41623364875913,28.52736805011432,0 84.41652839763505,28.52737365982068,0 84.41681679677728,28.52763958025026,0 84.41711154654446,28.52764518873998,0 84.41741264578955,28.52739048512795,0 84.41770739500258,28.52739609228013,0 84.41799579737267,28.52766201039724,0 84.4182905474769,28.52766761633275,0 84.41858529766539,28.5276732216297,0 84.41887370209567,28.52793913714035,0 84.41916845419634,28.52794474123999,0 84.41946320536016,28.52795034468167,0 84.41975795660819,28.52795594748478,0 84.42005270794043,28.52796154964933,0 84.42034746037788,28.52796715119472,0 84.42063587028811,28.52823306328535,0 84.42093062259556,28.52823866359455,0 84.42121903475812,28.52850457457782,0 84.42151378897765,28.52851017368961,0 84.42180854226029,28.52851577214342,0 84.42210329562704,28.52852136995865,0 84.42239804907791,28.5285269671353,0 84.42269280261289,28.52853256367336,0 84.42298122125428,28.52879847215727,0 84.42327597568018,28.52880406747846,0 84.42357073019018,28.52880966216106,0 84.42385915089162,28.52907556803795,0 84.42415390731355,28.52908116152302,0 84.42444866279848,28.5290867543501,0 84.42474341836744,28.52909234653859,0 84.42503817402044,28.52909793808847,0 84.42533293077852,28.52910352901911,0 84.42562135695948,28.52936943147496,0 84.42591611358731,28.52937502116927,0 84.4262108702991,28.52938061022496,0 84.42649930056021,28.529646511014,0 84.42619821363613,28.52990123570018,0 84.425909784586,28.52963533340142,0 84.42561502723539,28.52962974364688,0 84.42532660041567,28.52936384114204,0 84.42503184293483,28.52935825015115,0 84.42473708655905,28.52935265854101,0 84.42444233026733,28.52934706629226,0 84.42414757405963,28.5293414734049,0 84.42385281691494,28.52933587985956,0 84.4235643955748,28.52906997393366,0 84.42326964034207,28.52906437919076,0 84.4229748851934,28.52905878380928,0 84.4226864658914,28.5287928761781,0 84.42239171163368,28.52878727957972,0 84.42209695746007,28.52878168234276,0 84.42180220337059,28.5287760844672,0 84.42209061923094,28.52904199381384,0 84.42179586441871,28.52903639587796,0 84.42150744936521,28.52877048595306,0 84.42121269442293,28.52876488678093,0 84.42092428164376,28.52849897484684,0 84.42062952861359,28.52849337447728,0 84.42034111806481,28.52822746233757,0 84.42004636490464,28.52822186073181,0 84.41975161284969,28.52821625850689,0 84.41945686087895,28.52821065564341,0 84.4191621089924,28.52820505214135,0 84.41945051631355,28.52847096659386,0 84.419745269007,28.52847656951774,0 84.42004002178467,28.52848217180303,0 84.42033477566756,28.52848777346915,0 84.42062318683293,28.5287536865597,0 84.42091794058584,28.52875928698962,0 84.42120635402557,28.52902519807102,0 84.4215011096906,28.52903079730348,0 84.42178952538271,28.52929670727744,0 84.42149476993184,28.52929110864264,0 84.42120001354405,28.52928550934983,0 84.42091159946574,28.52901959821935,0 84.42061684499008,28.52901399772909,0 84.42032843316417,28.52874808549121,0 84.42003367855854,28.52874248376472,0 84.41973892505814,28.52873688141905,0 84.41944417164194,28.5287312784348,0 84.41943782690811,28.52899158936271,0 84.41973258104704,28.52899719240734,0 84.42002733527021,28.52900279481338,0 84.42032209059857,28.52900839660024,0 84.42061050306305,28.5292743088872,0 84.42090525826147,28.52927990943781,0 84.4211936729784,28.52954582061738,0 84.42089891697304,28.52954022064502,0 84.42060416105187,28.52953462003406,0 84.42031574794879,28.52926870769799,0 84.42002099189767,28.52926310585077,0 84.41972623695177,28.52925750338436,0 84.41971989277229,28.52951781435011,0 84.42001464844095,28.5295234168769,0 84.42030940521484,28.52952901878448,0 84.42059781893454,28.52979493207136,0 84.42030306237474,28.52978933076143,0 84.42000830487807,28.52978372879348,0 84.41971354848664,28.52977812620632,0 84.42000196125298,28.53004403979704,0 84.42029671947243,28.53004964182536,0 84.42059147675501,28.53005524319565,0 84.42089257557849,28.52980053274268,0 84.42118733230662,28.52980613277538,0 84.42148843008894,28.52955141997052,0 84.42178318626259,28.52955701866566,0 84.4220842809177,28.52930230527365,0 84.4223853741273,28.52904759111112,0 84.42268012910777,28.52905318776981,0 84.42296854904843,28.52931909545002,0 84.42326330491987,28.52932469089181,0 84.42355806087535,28.52933028569499,0 84.4238464828542,28.52959619166992,0 84.42414124072167,28.52960178527554,0 84.42443599765214,28.52960737822317,0 84.42473075466664,28.52961297053218,0 84.42502551176517,28.52961856220258,0 84.42532026996882,28.52962415325372,0 84.42560869740538,28.52989005670925,0 84.42531393941601,28.52988446625585,0 84.42501918048958,28.52987887514445,0 84.42530760880111,28.53014477834497,0 84.42560236751328,28.53015036885861,0 84.42590345547876,28.52989564652403,0 84.42620454202057,28.52964092251734,0 84.42650562811596,28.5293861986614,0 84.42680671174472,28.52913147401579,0 84.42710779392796,28.52887674859988,0 84.4274088746876,28.52862202151195,0 84.42770995500086,28.52836729457485,0 84.42800470932539,28.52837287955811,0 84.42829946373386,28.52837846390278,0 84.42859421822622,28.52838404760885,0 84.42889529517755,28.52812931780523,0 84.42919004911499,28.52813490017397,0 84.42948480313632,28.52814048190411,0 84.42977955724152,28.52814606299568,0 84.43007431245164,28.52815164346799,0 84.43036906672457,28.52815722328238,0 84.43066382108134,28.52816280245818,0 84.43095857552194,28.52816838099539,0 84.43124701549539,28.52843427228486,0 84.43154177082641,28.528439849605,0 84.43184284036775,28.52818511279481,0 84.43213759514363,28.52819068877766,0 84.43243235102433,28.52819626414123,0 84.43273341784229,28.52794152516366,0 84.43302817214676,28.52794709917066,0 84.43332923690213,28.52769235782268,0 84.43363030121122,28.52743761662581,0 84.43393136305383,28.52718287463969,0 84.43422611552511,28.52718844591222,0 84.43452086808009,28.52719401654618,0 84.43481562173983,28.52719958656087,0 84.43511037446224,28.52720515591768,0 84.43540512726833,28.52721072463592,0 84.4356998801581,28.5272162927156,0 84.43599463415258,28.52722186017598,0 84.4362893872097,28.52722742697851,0 84.43659044249468,28.52697267863383,0 84.43689149635608,28.52671792861759,0 84.43717994860272,28.52698380894535,0 84.43748100118596,28.52672905753203,0 84.43777575321579,28.52673462102176,0 84.4380768036927,28.52647986904197,0 84.43837155618809,28.5264854312139,0 84.438666307746,28.526490992728,0 84.43896735549929,28.52623623858151,0 84.43926840180718,28.52598148366534,0 84.43956944669155,28.5257267270778,0 84.43985790363826,28.52599260200325,0 84.44015894724433,28.5257378440188,0 84.44045369713547,28.52574340152186,0 84.44074844711014,28.52574895838638,0 84.44104319818936,28.5257545146316,0 84.44133794833103,28.52576007021903,0 84.44163269855616,28.52576562516792,0 84.4419274488648,28.52577117947826,0 84.44222220027793,28.5257767331693,0 84.44251695075347,28.52578228620255,0 84.44280541474086,28.52604815532201,0 84.44310016610596,28.526053707138,0 84.44339491857555,28.52605925833467,0 84.44368967010752,28.52606480887355,0 84.44398442172289,28.52607035877388,0 84.44427917342165,28.52607590803564,0 84.44457392622485,28.52608145667807,0 84.44487495960317,28.52582668751927,0 84.44517599151435,28.52557191849285,0 84.44547702198017,28.52531714869708,0 84.44577805202169,28.52506237815117,0 84.44607280132995,28.52506792334253,0 84.44637382828752,28.52481315040805,0 84.44666230019639,28.52507901180964,0 84.44696332689632,28.52482423749781,0 84.44725180041712,28.52509009774181,0 84.44755282481728,28.52483532201423,0 84.44785384775039,28.52458054641919,0 84.44814232409242,28.52484640399574,0 84.44844334574674,28.52459162700421,0 84.44874436595578,28.52433684924351,0 84.44903284305504,28.52460270501594,0 84.4493338630063,28.52434792587798,0 84.44934013307427,28.52408760866151,0 84.44962861114588,28.52435346322785,0 84.44992335936867,28.52435899993919,0 84.45021810767466,28.52436453601201,0 84.45051912426231,28.52410975401033,0 84.45082013840536,28.52385497031867,0 84.45111488551562,28.52386050435663,0 84.45140963270906,28.52386603775608,0 84.45170438100665,28.52387157053618,0 84.45200539176433,28.5236167848828,0 84.45230013848456,28.52362231630709,0 84.45260114715749,28.52336752918658,0 84.45290215540621,28.52311274131629,0 84.4532031612104,28.52285795175615,0 84.45320942138547,28.52259763369696,0 84.4535104249171,28.52234284419882,0 84.45351668420342,28.52208252605756,0 84.45321568147746,28.5223373156265,0 84.45350416554771,28.52260316232886,0 84.45379890979302,28.5226086903223,0 84.45409365514243,28.52261421769638,0 84.45439465675553,28.52235942610408,0 84.45469565692346,28.52210463374294,0 84.45499040005583,28.52211015906333,0 84.45529139816077,28.52185536433359,0 84.45559239581991,28.52160056975594,0 84.45588713775622,28.52160609304184,0 84.45618813230968,28.52135129697832,0 84.45648912541806,28.52109650014608,0 84.45679011810238,28.52084170256423,0 84.45709110834224,28.5205869032928,0 84.45739209711546,28.52033210415446,0 84.45769308444362,28.52007730424749,0 84.45799407134778,28.51982250359099,0 84.45828880889013,28.51982802135286,0 84.4585835465154,28.51983353847632,0 84.45887828422357,28.51983905496136,0 84.45917926778563,28.51958425054082,0 84.45946776090959,28.51985008603529,0 84.45976249886644,28.51985560060507,0 84.46006347948864,28.51960079407185,0 84.46036445966524,28.519345987691,0 84.46066543737587,28.51909118052258,0 84.46096641364154,28.51883637258568,0 84.46126114912271,28.51884188372573,0 84.46156212434641,28.5185870734399,0 84.46185685927074,28.51859258324376,0 84.46215783136726,28.51833777237444,0 84.46245880201892,28.51808296073674,0 84.46275977224664,28.51782814834976,0 84.46305450533477,28.51783365542196,0 84.46334923850563,28.5178391618558,0 84.46364397175927,28.51784466765127,0 84.4639449386447,28.51758985150101,0 84.46424590304268,28.51733503546519,0 84.46454686599586,28.51708021866111,0 84.46484782750419,28.51682540108878,0 84.46514878861031,28.51657058186554,0 84.46544974722906,28.51631576275683,0 84.46575070440306,28.51606094287995,0 84.46605166013231,28.5158061222349,0 84.46605788694208,28.51554580040347,0 84.46634638937198,28.51581162182974,0 84.46664111767332,28.5158171207672,0 84.4669358460573,28.51582261906634,0 84.4672305745239,28.51582811672715,0 84.46753152729202,28.51557329164088,0 84.46782625520147,28.5155787879658,0 84.46812720484259,28.51532396229664,0 84.46842815303901,28.51506913585946,0 84.4687291008117,28.51481430867333,0 84.46873532078989,28.51455398626368,0 84.46903626529206,28.51429915822009,0 84.46904248436128,28.51403883663054,0 84.46934342661396,28.51378400774857,0 84.46934964481731,28.51352368517559,0 84.4696505848206,28.51326885545525,0 84.46995152440024,28.51301402498606,0 84.4699577408899,28.51275370316279,0 84.46996395731858,28.51249338042651,0 84.4699701736432,28.51223305858078,0 84.4699763898853,28.51197273672384,0 84.46998260604489,28.51171241485568,0 84.46969410419175,28.51144660114606,0 84.46999503813804,28.51119177018391,0 84.47029596961899,28.51093693843493,0 84.47058447080276,28.51120274996977,0 84.47087918725887,28.51120823890539,0 84.47117390379746,28.5112137272028,0 84.47147483374049,28.5109588926833,0 84.47177576121821,28.51070405737705,0 84.47207668727305,28.51044922040128,0 84.47237761186203,28.5101943835596,0 84.47238382166671,28.50993406113957,0 84.47239003138894,28.50967373870832,0 84.47269095396682,28.50941890007546,0 84.47299187405797,28.50916406155775,0 84.47329279270485,28.50890922227242,0 84.47359370990749,28.50865438221948,0 84.47359991635064,28.50839405859386,0 84.47360612268987,28.50813373585881,0 84.47390703786019,28.50787889491664,0 84.47420795056543,28.50762405318791,0 84.47450886182651,28.50736921069168,0 84.47480977166491,28.50711436652616,0 84.47511068105861,28.50685952251391,0 84.4754115879873,28.50660467771521,0 84.47571249347189,28.50634983214908,0 84.47601339753389,28.50609498491375,0 84.47631430115123,28.50584013783178,0 84.4763205001685,28.50557981445287,0 84.47632669910348,28.50531949106278,0 84.47633289797764,28.50505916675968,0 84.47633909674803,28.50479884334714,0 84.47663999468331,28.5045439951978,0 84.47635149404194,28.50427819648845,0 84.47665239039017,28.50402334729683,0 84.47665858810946,28.50376302378039,0 84.47666478574646,28.50350270025276,0 84.47667098330119,28.50324237671392,0 84.4763824858796,28.50297657734193,0 84.47638868399167,28.50271625383968,0 84.47639488202145,28.50245593032624,0 84.47640107996897,28.50219560680158,0 84.47640727785566,28.50193528236391,0 84.47641347563859,28.50167495881683,0 84.47641967333925,28.50141463525854,0</coordinates>
        </LineString>
      </MultiGeometry>
    </Placemark>
  </Folder>
  <Style id="LineStyle00">
    <LabelStyle>
      <color>00000000</color>
      <scale>0.000000</scale>
    </LabelStyle>
    <LineStyle>
      <color>ff000000</color>
      <width>1.000000</width>
    </LineStyle>
    <PolyStyle>
      <color>00000000</color>
      <outline>0</outline>
    </PolyStyle>
  </Style>
</Document>
</kml>